{
    "links": {
        "self": "http://www.neowsapp.com/rest/v1/neo/3605162?api_key=iIulBulltgU6a56xZRHN4H3l9WmuAYTsLGpBGhQ2"
    },
    "id": "3605162",
    "neo_reference_id": "3605162",
    "name": "(2012 KX41)",
    "designation": "2012 KX41",
    "nasa_jpl_url": "http://ssd.jpl.nasa.gov/sbdb.cgi?sstr=3605162",
    "absolute_magnitude_h": 24.8,
    "estimated_diameter": {
        "kilometers": {
            "estimated_diameter_min": 0.0291443905,
            "estimated_diameter_max": 0.0651688382
        },
        "meters": {
            "estimated_diameter_min": 29.1443904535,
            "estimated_diameter_max": 65.1688382168
        },
        "miles": {
            "estimated_diameter_min": 0.018109479,
            "estimated_diameter_max": 0.0404940262
        },
        "feet": {
            "estimated_diameter_min": 95.6180819754,
            "estimated_diameter_max": 213.8085311752
        }
    },
    "is_potentially_hazardous_asteroid": false,
    "close_approach_data": [
        {
            "close_approach_date": "2012-06-02",
            "close_approach_date_full": "2012-Jun-02 09:51",
            "epoch_date_close_approach": 1338630660000,
            "relative_velocity": {
                "kilometers_per_second": "13.3908553267",
                "kilometers_per_hour": "48207.0791759926",
                "miles_per_hour": "29954.004280216"
            },
            "miss_distance": {
                "astronomical": "0.0371777147",
                "lunar": "14.4621310183",
                "kilometers": "5561706.930587689",
                "miles": "3455884.4351765482"
            },
            "orbiting_body": "Earth"
        }
    ],
    "orbital_data": {
        "orbit_id": "4",
        "orbit_determination_date": "2017-04-06 08:49:40",
        "first_observation_date": "2012-05-19",
        "last_observation_date": "2012-05-20",
        "data_arc_in_days": 1,
        "observations_used": 7,
        "orbit_uncertainty": "9",
        "minimum_orbit_intersection": ".0341059",
        "jupiter_tisserand_invariant": "3.263",
        "epoch_osculation": "2456067.5",
        "eccentricity": ".6185478042992543",
        "semi_major_axis": "2.356336675231584",
        "inclination": "4.443818015661656",
        "ascending_node_longitude": "48.80063322920664",
        "orbital_period": "1321.157033552729",
        "perihelion_distance": ".8988297985772826",
        "perihelion_argument": "251.7202134561554",
        "aphelion_distance": "3.813843551885885",
        "perihelion_time": "2456116.363684256784",
        "mean_anomaly": "346.6852116094493",
        "mean_motion": ".2724884255673395",
        "equinox": "J2000",
        "orbit_class": {
            "orbit_class_type": "APO",
            "orbit_class_description": "Near-Earth asteroid orbits which cross the Earth’s orbit similar to that of 1862 Apollo",
            "orbit_class_range": "a (semi-major axis) > 1.0 AU; q (perihelion) < 1.017 AU"
        }
    },
    "is_sentry_object": false
}